SKYSAT-C1               
1 41601U 16040C   26185.54042110  .00015913  00000+0  44688-3 0  9993
2 41601  96.9550 216.3216 0001538  19.3867 340.7436 15.36610127560538
LAPAN-A3                
1 41603U 16040E   26185.61749406  .00005832  00000+0  18382-3 0  9996
2 41603  97.1497 181.1919 0008733 321.7541  38.3081 15.33225973557489
GAOFEN-3                
1 41727U 16049A   26185.63660500 -.00000068  00000+0 -75305-5 0  9999
2 41727  98.4010 193.1591 0001695  92.2838 267.8546 14.42217295521167
SKYSAT-C4               
1 41771U 16058B   26185.32375483  .00022372  00000+0  41239-3 0  9994
2 41771  96.9163 206.3834 0002854 134.2708 225.8779 15.49141148548124
SKYSAT-C5               
1 41772U 16058C   26185.57931001  .00013960  00000+0  41657-3 0  9993
2 41772  97.0456 225.4450 0002162 184.1062 176.0164 15.34732331546416
SKYSAT-C2               
1 41773U 16058D   26185.51811677  .00022648  00000+0  52378-3 0  9999
2 41773  97.0161 206.9640 0002817  29.5218 330.6189 15.42486152547723
SKYSAT-C3               
1 41774U 16058E   26185.54177907  .00043204  00000+0  68379-3 0  9993
2 41774  96.8996 215.7278 0001702 134.9962 225.1431 15.53318604548807
ALSAT-1B                
1 41785U 16059C   26185.57077462  .00000187  00000+0  36977-4 0  9997
2 41785  97.7746 193.5843 0009517 161.3515 198.8043 14.72287226523132
PATHFINDER 1            
1 41787U 16059E   26185.45335471  .00000761  00000+0  14108-3 0  9992
2 41787  97.8170 183.9505 0029182 148.6829 211.6122 14.67683975522248
SCATSAT 1               
1 41790U 16059H   26185.45883043  .00001562  00000+0  21093-3 0  9990
2 41790  98.1182 249.4027 0054414 191.0302 168.9720 14.79567077104140
GOKTURK 1A              
1 41875U 16073A   26185.62028309  .00000293  00000+0  66554-4 0  9997
2 41875  98.1228  80.0198 0001388  79.4982 280.6376 14.62786980511372
RESOURCESAT-2A          
1 41877U 16074A   26185.59599826  .00000486  00000+0  24172-3 0  9996
2 41877  98.7522 258.9581 0002958  49.9415 310.2022 14.21607933496775
CARTOSAT-2D             
1 41948U 17008A   26185.61234338  .00007907  00000+0  37839-3 0  9999
2 41948  97.4092 244.5926 0005066 169.1698 190.9646 15.19224496520227
SENTINEL-2B             
1 42063U 17013A   26185.62007006  .00000252  00000+0  11288-3 0  9991
2 42063  98.5687 260.1487 0001217  88.9791 271.1532 14.30813391487138
CARTOSAT-2E             
1 42767U 17036C   26184.64211716  .00006795  00000+0  32509-3 0  9990
2 42767  97.4262 244.1738 0002489 235.4252 124.6748 15.19298181500645
FORMOSAT-5              
1 42920U 17049A   26185.63850546  .00000250  00000+0  74260-4 0  9996
2 42920  98.2250 260.5603 0012026  35.2881 324.9108 14.50905778469209
SENTINEL-5P             
1 42969U 17064A   26185.54142034  .00000089  00000+0  63058-4 0  9995
2 42969  98.7927 127.5495 0001086  92.1206 268.0094 14.19522103452022
SKYSAT-C11              
1 42987U 17068A   26185.39503623  .00040816  00000+0  52796-3 0  9995
2 42987  97.4373 334.9871 0000507 161.2582 198.8692 15.58821897485922
SKYSAT-C10              
1 42988U 17068B   26185.63504780  .00019095  00000+0  56482-3 0  9999
2 42988  97.4530 322.6571 0001266 108.4549 251.6831 15.34954592485036
SKYSAT-C9               
1 42989U 17068C   26185.63290475  .00023734  00000+0  55681-3 0  9998
2 42989  97.4451 323.7579 0009291  78.2825 281.9464 15.42013324485447
SKYSAT-C8               
1 42990U 17068D   26185.64473427  .00019038  00000+0  52197-3 0  9992
2 42990  97.4548 322.5339 0001202  96.1463 263.9918 15.37333159484996
SKYSAT-C7               
1 42991U 17068E   26185.11815399  .00013456  00000+0  37044-3 0  9995
2 42991  97.4559 322.9903 0006593  56.7606 303.4269 15.37264492484979
SKYSAT-C6               
1 42992U 17068F   26185.62663199  .00015807  00000+0  47808-3 0  9992
2 42992  97.4597 323.4064 0005202 104.6209 255.5610 15.34280594484991
CARTOSAT-2F             
1 43111U 18004A   26185.59671278  .00006542  00000+0  31398-3 0  9993
2 43111  97.4772 245.0615 0001816 154.4675 205.6650 15.19206574469978
GAOFEN-1 02             
1 43259U 18031A   26185.64796752  .00000557  00000+0  87529-4 0  9995
2 43259  98.0515 248.1257 0002141 340.5325  19.5802 14.76459694445274
GAOFEN-1 03             
1 43260U 18031B   26185.62599748  .00001049  00000+0  15815-3 0  9996
2 43260  98.0509 247.9602 0003200  42.3953 317.7503 14.76452733445268
GAOFEN-1 04             
1 43262U 18031D   26185.60176175  .00001151  00000+0  17282-3 0  9995
2 43262  98.0516 248.1292 0001751  60.8925 299.2460 14.76460319445253
SENTINEL-3B             
1 43437U 18039A   26185.44165457  .00000138  00000+0  75028-4 0  9997
2 43437  98.6242 252.7259 0000891 116.8484 243.2787 14.26739817426582
GAOFEN-5 01             
1 43461U 18043A   26185.39345807  .00000403  00000+0  93001-4 0  9998
2 43461  98.4580 157.3419 0002639  52.3481 307.7958 14.60617837434202
GAOFEN-6                
1 43484U 18048A   26185.14927319  .00000270  00000+0  46409-4 0  9997
2 43484  98.0962 247.8248 0012019 112.9072 247.3408 14.76373246435899
