OBJECT_NAME,OBJECT_ID,EPOCH,MEAN_MOTION,ECCENTRICITY,INCLINATION,RA_OF_ASC_NODE,ARG_OF_PERICENTER,MEAN_ANOMALY,EPHEMERIS_TYPE,CLASSIFICATION_TYPE,NORAD_CAT_ID,ELEMENT_SET_NO,REV_AT_EPOCH,BSTAR,MEAN_MOTION_DOT,MEAN_MOTION_DDOT
SKYSAT-C1,2016-040C,2026-07-04T12:58:12.383040,15.36610127,.00015389,96.9550,216.3216,19.3867,340.7436,0,U,41601,999,56053,.44688399E-3,.15913E-3,0
LAPAN-A3,2016-040E,2026-07-04T14:49:11.486784,15.33225973,.00087335,97.1497,181.1919,321.7541,38.3081,0,U,41603,999,55748,.18382177E-3,.5832E-4,0
GAOFEN-3,2016-049A,2026-07-04T15:16:42.672000,14.42217295,.0001695,98.4010,193.1591,92.2838,267.8546,0,U,41727,999,52116,-.7530484E-5,-.68E-6,0
SKYSAT-C4,2016-058B,2026-07-04T07:46:12.417312,15.49141148,.00028545,96.9163,206.3834,134.2708,225.8779,0,U,41771,999,54812,.41239451E-3,.22372E-3,0
SKYSAT-C5,2016-058C,2026-07-04T13:54:12.384864,15.34732331,.00021628,97.0456,225.4450,184.1062,176.0164,0,U,41772,999,54641,.41657415E-3,.1396E-3,0
SKYSAT-C2,2016-058D,2026-07-04T12:26:05.288928,15.42486152,.00028173,97.0161,206.9640,29.5218,330.6189,0,U,41773,999,54772,.52377739E-3,.22648E-3,0
SKYSAT-C3,2016-058E,2026-07-04T13:00:09.711648,15.53318604,.00017023,96.8996,215.7278,134.9962,225.1431,0,U,41774,999,54880,.68379473E-3,.43204E-3,0
ALSAT-1B,2016-059C,2026-07-04T13:41:54.927168,14.72287226,.00095178,97.7746,193.5843,161.3515,198.8043,0,U,41785,999,52313,.36976819E-4,.187E-5,0
PATHFINDER 1,2016-059E,2026-07-04T10:52:49.846944,14.67683975,.0029182,97.8170,183.9505,148.6829,211.6122,0,U,41787,999,52224,.14108012E-3,.761E-5,0
SCATSAT 1,2016-059H,2026-07-04T11:00:42.949152,14.79567077,.00544144,98.1182,249.4027,191.0302,168.9720,0,U,41790,999,10414,.21093488E-3,.1562E-4,0
GOKTURK 1A,2016-073A,2026-07-04T14:53:12.458976,14.62786980,.00013885,98.1228,80.0198,79.4982,280.6376,0,U,41875,999,51137,.66553978E-4,.293E-5,0
RESOURCESAT-2A,2016-074A,2026-07-04T14:18:14.249664,14.21607933,.00029583,98.7522,258.9581,49.9415,310.2022,0,U,41877,999,49677,.24172249E-3,.486E-5,0
CARTOSAT-2D,2017-008A,2026-07-04T14:41:46.468032,15.19224496,.00050666,97.4092,244.5926,169.1698,190.9646,0,U,41948,999,52022,.3783918E-3,.7907E-4,0
SENTINEL-2B,2017-013A,2026-07-04T14:52:54.053184,14.30813391,.00012172,98.5687,260.1487,88.9791,271.1532,0,U,42063,999,48713,.11287918E-3,.252E-5,0
CARTOSAT-2E,2017-036C,2026-07-03T15:24:38.922624,15.19298181,.00024899,97.4262,244.1738,235.4252,124.6748,0,U,42767,999,50064,.32508747E-3,.6795E-4,0
FORMOSAT-5,2017-049A,2026-07-04T15:19:26.871744,14.50905778,.00120261,98.2250,260.5603,35.2881,324.9108,0,U,42920,999,46920,.74260405E-4,.25E-5,0
SENTINEL-5P,2017-064A,2026-07-04T12:59:38.717376,14.19522103,.00010864,98.7927,127.5495,92.1206,268.0094,0,U,42969,999,45202,.63058225E-4,.89E-6,0
SKYSAT-C11,2017-068A,2026-07-04T09:28:51.130272,15.58821897,.00005076,97.4373,334.9871,161.2582,198.8692,0,U,42987,999,48592,.5279564E-3,.40816E-3,0
SKYSAT-C10,2017-068B,2026-07-04T15:14:28.129920,15.34954592,.0001266,97.4530,322.6571,108.4549,251.6831,0,U,42988,999,48503,.56482026E-3,.19095E-3,0
SKYSAT-C9,2017-068C,2026-07-04T15:11:22.970400,15.42013324,.00092916,97.4451,323.7579,78.2825,281.9464,0,U,42989,999,48544,.55680997E-3,.23734E-3,0
SKYSAT-C8,2017-068D,2026-07-04T15:28:25.040928,15.37333159,.00012024,97.4548,322.5339,96.1463,263.9918,0,U,42990,999,48499,.52197355E-3,.19038E-3,0
SKYSAT-C7,2017-068E,2026-07-04T02:50:08.504736,15.37264492,.00065931,97.4559,322.9903,56.7606,303.4269,0,U,42991,999,48497,.3704449E-3,.13456E-3,0
SKYSAT-C6,2017-068F,2026-07-04T15:02:21.003936,15.34280594,.0005202,97.4597,323.4064,104.6209,255.5610,0,U,42992,999,48499,.47808449E-3,.15807E-3,0
CARTOSAT-2F,2018-004A,2026-07-04T14:19:15.984192,15.19206574,.00018162,97.4772,245.0615,154.4675,205.6650,0,U,43111,999,46997,.31397814E-3,.6542E-4,0
GAOFEN-1 02,2018-031A,2026-07-04T15:33:04.393728,14.76459694,.00021413,98.0515,248.1257,340.5325,19.5802,0,U,43259,999,44527,.87529172E-4,.557E-5,0
GAOFEN-1 03,2018-031B,2026-07-04T15:01:26.182272,14.76452733,.00032005,98.0509,247.9602,42.3953,317.7503,0,U,43260,999,44526,.15814686E-3,.1049E-4,0
GAOFEN-1 04,2018-031D,2026-07-04T14:26:32.215200,14.76460319,.0001751,98.0516,248.1292,60.8925,299.2460,0,U,43262,999,44525,.17281554E-3,.1151E-4,0
SENTINEL-3B,2018-039A,2026-07-04T10:35:58.954848,14.26739817,.00008916,98.6242,252.7259,116.8484,243.2787,0,U,43437,999,42658,.7502834E-4,.138E-5,0
GAOFEN-5 01,2018-043A,2026-07-04T09:26:34.777248,14.60617837,.00026396,98.4580,157.3419,52.3481,307.7958,0,U,43461,999,43420,.93000824E-4,.403E-5,0
GAOFEN-6,2018-048A,2026-07-04T03:34:57.203616,14.76373246,.00120196,98.0962,247.8248,112.9072,247.3408,0,U,43484,999,43589,.46408784E-4,.27E-5,0
